STARLETTE               
1 07646U 75010A   26066.59267930 -.00000128  00000+0  13480-4 0  9998
2 07646  49.8227 145.6079 0205568  87.4168 275.0238 13.82349091580481
LAGEOS 1                
1 08820U 76039A   26066.44586310 -.00000008  00000+0  00000+0 0  9991
2 08820 109.8176 144.5139 0044662 324.0653  33.1235  6.38664897906632
AJISAI (EGS)            
1 16908U 86061A   26066.63698045 -.00000090  00000+0  54288-4 0  9996
2 16908  50.0080  99.6602 0011257 281.7221 190.0520 12.44515665467744
COSMOS 1989 (ETALON 1)  
1 19751U 89001C   26065.62096231 -.00000001  00000+0  00000+0 0  9999
2 19751  64.8856  75.7019 0023416 217.5756 242.2717  2.13156097289187
COSMOS 2024 (ETALON 2)  
1 20026U 89039C   26066.47370574 -.00000056  00000+0  00000+0 0  9996
2 20026  64.9956 314.0419 0020463 213.4028 320.7723  2.13204631286336
LAGEOS 2                
1 22195U 92070B   26066.58933844 -.00000009  00000+0  00000+0 0  9999
2 22195  52.6789 330.8705 0137762 142.9035  33.0328  6.47293340788846
STELLA                  
1 22824U 93061B   26066.63913090 -.00000024  00000+0  84677-5 0  9991
2 22824  98.7845 130.4750 0006633 163.3650 324.8232 14.27467517690286
LARETS                  
1 27944U 03042F   26066.61121903  .00000123  00000+0  33129-4 0  9995
2 27944  98.4012 226.7506 0012189 359.1070   1.0108 14.63848018198502
LARES                   
1 38077U 12006A   26066.59145796 -.00000034  00000+0  28129-4 0  9993
2 38077  69.4878 105.7833 0007437 152.5487 207.5933 12.54932196644329
LARES-2                 
1 53105U 22080A   26065.02398958 -.00000028  00000+0  00000+0 0  9998
2 53105  70.1755 340.7064 0005309 356.7815   3.2821  6.38965015 85076
